CCSDS_OMM_VERS,COMMENT,CREATION_DATE,ORIGINATOR,OBJECT_NAME,OBJECT_ID,CENTER_NAME,REF_FRAME,TIME_SYSTEM,MEAN_ELEMENT_THEORY,EPOCH,MEAN_MOTION,ECCENTRICITY,INCLINATION,RA_OF_ASC_NODE,ARG_OF_PERICENTER,MEAN_ANOMALY,EPHEMERIS_TYPE,CLASSIFICATION_TYPE,NORAD_CAT_ID,ELEMENT_SET_NO,REV_AT_EPOCH,BSTAR,MEAN_MOTION_DOT,MEAN_MOTION_DDOT,SEMIMAJOR_AXIS,PERIOD,APOAPSIS,PERIAPSIS,OBJECT_TYPE,RCS_SIZE,COUNTRY_CODE,LAUNCH_DATE,SITE,DECAY_DATE,FILE,GP_ID,TLE_LINE0,TLE_LINE1,TLE_LINE2
"2.0","GENERATED VIA SPACE-TRACK.ORG API","2012-10-10T01:42:45","18 SPCS","BLITS","2009-049G","EARTH","TEME","UTC","SGP4","2012-10-10T01:47:03.267168","14.21589604","0.00045540","98.6321","335.1852","75.4816","284.6938","0","U","35871","999","15828","0.00003650400000","0.00000037","0.0000000000000","7198.123","101.295","823.266","816.710","PAYLOAD","SMALL","CIS","2009-09-17","TTMTR","","1364662","90968298","0 BLITS","1 35871U 09049G   12284.07434337  .00000037  00000-0  36504-4 0  9996","2 35871 098.6321 335.1852 0004554 075.4816 284.6938 14.21589604158285"
"2.0","GENERATED VIA SPACE-TRACK.ORG API","2012-10-10T08:48:51","18 SPCS","BLITS","2009-049G","EARTH","TEME","UTC","SGP4","2012-10-10T03:28:24.288383","14.21590706","0.00044980","98.6315","335.2533","75.9729","284.1971","0","U","35871","999","15829","0.00023679000000","0.00000476","0.0000000000000","7198.119","101.294","823.222","816.747","PAYLOAD","SMALL","CIS","2009-09-17","TTMTR","","1364827","90971455","0 BLITS","1 35871U 09049G   12284.14472556  .00000476  00000-0  23679-3 0  9994","2 35871 098.6315 335.2533 0004498 075.9729 284.1971 14.21590706158298"
"2.0","GENERATED VIA SPACE-TRACK.ORG API","2012-10-10T16:49:17","18 SPCS","BLITS","2009-049G","EARTH","TEME","UTC","SGP4","2012-10-10T16:59:13.457759","14.21589619","0.00045160","98.6324","335.8048","73.9398","286.2286","0","U","35871","999","15837","0.00006461600000","0.00000099","0.0000000000000","7198.123","101.295","823.239","816.737","PAYLOAD","SMALL","CIS","2009-09-17","TTMTR","","1365018","90981787","0 BLITS","1 35871U 09049G   12284.70779465  .00000099  00000-0  64616-4 0  9993","2 35871 098.6324 335.8048 0004516 073.9398 286.2286 14.21589619158378"
"2.0","GENERATED VIA SPACE-TRACK.ORG API","2012-10-11T00:53:12","18 SPCS","BLITS","2009-049G","EARTH","TEME","UTC","SGP4","2012-10-11T01:25:59.151360","14.21590885","0.00044850","98.6323","336.1489","74.0469","286.1257","0","U","35871","999","15842","0.00016880000000","0.00000327","0.0000000000000","7198.119","101.294","823.212","816.755","PAYLOAD","SMALL","CIS","2009-09-17","TTMTR","","1365172","90984443","0 BLITS","1 35871U 09049G   12285.05971240  .00000327  00000-0  16880-3 0  9990","2 35871 098.6323 336.1489 0004485 074.0469 286.1257 14.21590885158426"
"2.0","GENERATED VIA SPACE-TRACK.ORG API","2012-10-11T05:32:03","18 SPCS","BLITS","2009-049G","EARTH","TEME","UTC","SGP4","2012-10-11T03:07:20.196767","14.21590263","0.00044720","98.6328","336.2186","77.3826","282.7859","0","U","35871","999","15843","0.00004212300000","0.00000049","0.0000000000000","7198.121","101.295","823.205","816.767","PAYLOAD","SMALL","CIS","2009-09-17","TTMTR","","1365267","90986720","0 BLITS","1 35871U 09049G   12285.13009487  .00000049  00000-0  42123-4 0  9995","2 35871 098.6328 336.2186 0004472 077.3826 282.7859 14.21590263158436"
"2.0","GENERATED VIA SPACE-TRACK.ORG API","2012-10-11T14:55:00","18 SPCS","BLITS","2009-049G","EARTH","TEME","UTC","SGP4","2012-10-11T16:38:09.303935","14.21590324","0.00044850","98.6328","336.7690","73.7238","286.4419","0","U","35871","999","15851","0.00005559800000","0.00000079","0.0000000000000","7198.121","101.295","823.214","816.757","PAYLOAD","SMALL","CIS","2009-09-17","TTMTR","","1365468","90997502","0 BLITS","1 35871U 09049G   12285.69316324  .00000079  00000-0  55598-4 0  9990","2 35871 098.6328 336.7690 0004485 073.7238 286.4419 14.21590324158512"
"2.0","GENERATED VIA SPACE-TRACK.ORG API","2012-10-12T00:40:55","18 SPCS","BLITS","2009-049G","EARTH","TEME","UTC","SGP4","2012-10-12T01:04:55.020000","14.21590599","0.00045400","98.6327","337.1131","72.2905","287.8760","0","U","35871","999","15856","0.00009487000000","0.00000165","0.0000000000000","7198.120","101.294","823.253","816.717","PAYLOAD","SMALL","CIS","2009-09-17","TTMTR","","1366001","91001371","0 BLITS","1 35871U 09049G   12286.04508125  .00000165  00000-0  94870-4 0  9994","2 35871 098.6327 337.1131 0004540 072.2905 287.8760 14.21590599158566"
"2.0","GENERATED VIA SPACE-TRACK.ORG API","2012-10-12T08:43:52","18 SPCS","BLITS","2009-049G","EARTH","TEME","UTC","SGP4","2012-10-12T02:46:16.169951","14.21590497","0.00044760","98.6316","337.1822","73.1033","287.0650","0","U","35871","999","15857","0.00003691200000","0.00000038","0.0000000000000","7198.120","101.294","823.207","816.763","PAYLOAD","SMALL","CIS","2009-09-17","TTMTR","","1366155","91011619","0 BLITS","1 35871U 09049G   12286.11546493  .00000038  00000-0  36912-4 0  9994","2 35871 098.6316 337.1822 0004476 073.1033 287.0650 14.21590497158579"
"2.0","GENERATED VIA SPACE-TRACK.ORG API","2012-10-12T16:54:34","18 SPCS","BLITS","2009-049G","EARTH","TEME","UTC","SGP4","2012-10-12T14:35:44.109888","14.21590059","0.00045410","98.6332","337.6638","70.5791","289.5857","0","U","35871","999","15864","0.00001645800000","-0.00000007","0.0000000000000","7198.121","101.295","823.255","816.718","PAYLOAD","SMALL","CIS","2009-09-17","TTMTR","","1366377","91014412","0 BLITS","1 35871U 09049G   12286.60814942 -.00000007  00000-0  16458-4 0  9995","2 35871 098.6332 337.6638 0004541 070.5791 289.5857 14.21590059158640"
"2.0","GENERATED VIA SPACE-TRACK.ORG API","2012-10-13T01:00:42","18 SPCS","BLITS","2009-049G","EARTH","TEME","UTC","SGP4","2012-10-13T02:25:12.118944","14.21590072","0.00045560","98.6331","338.1458","68.8764","291.2895","0","U","35871","999","15871","0.00001591100000","-0.00000008","0.0000000000000","7198.121","101.295","823.266","816.707","PAYLOAD","SMALL","CIS","2009-09-17","TTMTR","","1366567","91016966","0 BLITS","1 35871U 09049G   12287.10083471 -.00000008  00000-0  15911-4 0  9990","2 35871 098.6331 338.1458 0004556 068.8764 291.2895 14.21590072158716"
"2.0","GENERATED VIA SPACE-TRACK.ORG API","2012-10-13T16:57:17","18 SPCS","BLITS","2009-049G","EARTH","TEME","UTC","SGP4","2012-10-13T15:56:01.233888","14.21590156","0.00045650","98.6331","338.6967","67.6140","292.5518","0","U","35871","999","15879","0.00001789800000","-0.00000004","0.0000000000000","7198.121","101.295","823.272","816.700","PAYLOAD","SMALL","CIS","2009-09-17","TTMTR","","1366836","91030342","0 BLITS","1 35871U 09049G   12287.66390317 -.00000004  00000-0  17898-4 0  9993","2 35871 098.6331 338.6967 0004565 067.6140 292.5518 14.21590156158798"
"2.0","GENERATED VIA SPACE-TRACK.ORG API","2012-10-14T01:00:59","18 SPCS","BLITS","2009-049G","EARTH","TEME","UTC","SGP4","2012-10-14T03:45:29.214431","14.21590198","0.00045650","98.6327","339.1785","66.7925","293.3732","0","U","35871","999","15886","0.00001872500000","-0.00000002","0.0000000000000","7198.121","101.295","823.272","816.700","PAYLOAD","SMALL","CIS","2009-09-17","TTMTR","","1366964","91033005","0 BLITS","1 35871U 09049G   12288.15658813 -.00000002  00000-0  18725-4 0  9994","2 35871 098.6327 339.1785 0004565 066.7925 293.3732 14.21590198158869"
"2.0","GENERATED VIA SPACE-TRACK.ORG API","2012-10-14T17:06:01","18 SPCS","BLITS","2009-049G","EARTH","TEME","UTC","SGP4","2012-10-14T15:34:57.186335","14.21590169","0.00045550","98.6326","339.6602","65.3901","294.7744","0","U","35871","999","15893","0.00001634600000","-0.00000007","0.0000000000000","7198.121","101.295","823.265","816.707","PAYLOAD","SMALL","CIS","2009-09-17","TTMTR","","1367252","91046245","0 BLITS","1 35871U 09049G   12288.64927299 -.00000007  00000-0  16346-4 0  9997","2 35871 098.6326 339.6602 0004555 065.3901 294.7744 14.21590169158933"
"2.0","GENERATED VIA SPACE-TRACK.ORG API","2012-10-15T01:34:13","18 SPCS","BLITS","2009-049G","EARTH","TEME","UTC","SGP4","2012-10-15T01:43:04.032480","14.21590190","0.00045590","98.6326","340.0732","64.1031","296.0615","0","U","35871","999","15899","0.00001590600000","-0.00000008","0.0000000000000","7198.121","101.295","823.268","816.704","PAYLOAD","SMALL","CIS","2009-09-17","TTMTR","","1367388","91048824","0 BLITS","1 35871U 09049G   12289.07157445 -.00000008  00000-0  15906-4 0  9995","2 35871 098.6326 340.0732 0004559 064.1031 296.0615 14.21590190158990"
"2.0","GENERATED VIA SPACE-TRACK.ORG API","2012-10-15T08:44:58","18 SPCS","BLITS","2009-049G","EARTH","TEME","UTC","SGP4","2012-10-15T03:24:25.172928","14.21590062","0.00045750","98.6326","340.1420","63.8929","296.2708","0","U","35871","999","15900","0.00001029400000","-0.00000021","0.0000000000000","7198.121","101.295","823.280","816.693","PAYLOAD","SMALL","CIS","2009-09-17","TTMTR","","1367535","91051726","0 BLITS","1 35871U 09049G   12289.14195802 -.00000021  00000-0  10294-4 0  9992","2 35871 098.6326 340.1420 0004575 063.8929 296.2708 14.21590062159001"
"2.0","GENERATED VIA SPACE-TRACK.ORG API","2012-10-15T16:41:45","18 SPCS","BLITS","2009-049G","EARTH","TEME","UTC","SGP4","2012-10-15T15:13:53.161247","14.21590135","0.00045790","98.6327","340.6240","62.5368","297.6275","0","U","35871","999","15907","0.00001234800000","-0.00000016","0.0000000000000","7198.121","101.295","823.282","816.690","PAYLOAD","SMALL","CIS","2009-09-17","TTMTR","","1367782","91062186","0 BLITS","1 35871U 09049G   12289.63464307 -.00000016  00000-0  12348-4 0  9991","2 35871 098.6327 340.6240 0004579 062.5368 297.6275 14.21590135159076"
